#aV2014  3 31  0  0  0.00000000     288 DD+AD WGS84 FIT  NGA
## 1786  86400.00000000   300.00000000 56747 0.0000000000000
+   31     1  2  3  4  5  7  8  9 10 11 12 13 14 15 16 17 18
+         19 20 21 22 23 24 25 26 27 28 29 30 31 32  0  0  0
+          0  0  0  0  0  0  0  0  0  0  0  0  0  0  0  0  0
+          0  0  0  0  0  0  0  0  0  0  0  0  0  0  0  0  0
+          0  0  0  0  0  0  0  0  0  0  0  0  0  0  0  0  0
++         2  2  2  2  2  2  2  2  2  2  2  2  2  2  2  2  2
++         2  2  2  2  2  2  2  2  2  2  2  2  2  2  0  0  0
++         0  0  0  0  0  0  0  0  0  0  0  0  0  0  0  0  0
++         0  0  0  0  0  0  0  0  0  0  0  0  0  0  0  0  0
++         0  0  0  0  0  0  0  0  0  0  0  0  0  0  0  0  0
%c cc cc ccc ccc cccc cccc cccc cccc ccccc ccccc ccccc ccccc
%c cc cc ccc ccc cccc cccc cccc cccc ccccc ccccc ccccc ccccc
%f  0.0000000  0.000000000  0.00000000000  0.000000000000000
%f  0.0000000  0.000000000  0.00000000000  0.000000000000000
%i    0    0    0    0      0      0      0      0         0
%i    0    0    0    0      0      0      0      0         0
/*      NGA, ST. LOUIS,MO.                                  
/*   EPHEMERIS COMPUTED FROM  1 DAYS OF DATA                
/*   EPOCHA SMOOTHER                                       
/* CCCCCCCCCCCCCCCCCCCCCCCCCCCCCCCCCCCCCCCCCCCCCCCCCCCCCCCCC
*  2014  3 31 15  0  0.00000000
P  1 -13229.882352  14856.979593  17504.206319      6.587789                    
V  1   -295.139187 -22402.811968  18886.026172      0.016697                    
P  2  14177.437957  10140.624489 -19885.870724    487.061024                    
V  2  -2018.752559  25763.115587  11040.804381      0.021549                    
P  3 -24893.579535  -6003.921766   6812.169320    345.733438                    
V  3  -7081.742803  -6960.263516 -29495.277361      0.048740                    
P  4   7641.098046  22443.848220 -12036.497075      6.375409                    
V  4  -3804.259408  14767.684115  26018.684167      0.001139                    
P  5  22482.106800    170.660986 -14303.690402   -381.481518                    
V  5 -15096.470416  10186.449590 -23509.566939      0.020423                    
P  7  -6217.847265  24907.836923  -6030.137484    330.112137                    
V  7  -1929.449366  -7996.623736 -31010.243185      0.042106                    
P  8  -1317.660464  25703.468347   5209.952706     12.630545                    
V  8  -3239.581750   6024.931106 -32034.857204      0.002638                    
P  9   2089.619955  25671.473683   5564.322741    316.590026                    
V  9  -2779.949654   7613.075160 -31288.764990      0.028876                    
P 10   7552.746403  13856.711762 -21706.741158   -120.070757                    
V 10 -24217.103872  11560.593946   -639.943762     -0.013255                    
P 11 -15036.507184   7151.599499  20192.940662   -476.758314                    
V 11  -7536.101164 -26029.792457   3738.507293     -0.031707                    
P 12  23854.046405 -11370.987901   -797.637796    195.643506                    
V 12   1751.500116   1579.202428  32463.474116      0.024027                    
P 13  -6168.866502  13989.653927 -21837.574972     14.558510                    
V 13 -21374.622115 -17102.080107  -5098.672731     -0.039263                    
P 14 -10793.954456 -20237.816863  13732.307249    185.733408                    
V 14  14554.522909   8976.350866  24918.161902     -0.032973                    
P 15  21798.882147    126.465228  15311.892774   -171.284962                    
V 15  15425.273749  12143.263998 -21691.626501     -0.021325                    
P 16 -22370.561252   -859.698842 -14611.958391   -225.342635                    
V 16  16316.714230  -8348.813242 -24205.988560      0.017026                    
P 17  12458.462148  19930.563592  12844.364741    -81.094217                    
V 17 -13902.423137  -7737.672961  25790.219190     -0.032361                    
P 18   9996.057467 -18736.670307  16187.677191    310.453158                    
V 18  19013.783042  -6723.350572 -20412.358210      0.022169                    
P 19 -21682.748552  -4137.873812  14957.210682   -448.168082                    
V 19 -13764.205464 -13264.177767 -22980.947702     -0.023793                    
P 20 -22342.207444  14225.866870  -1513.906224    175.191893                    
V 20  -3444.817951  -2531.454865  30966.500845      0.036073                    
P 21   3585.830780 -25816.074789  -2922.040541   -352.597873                    
V 21   3899.276044   4750.996611 -31118.432382     -0.022239                    
P 22  -3234.581058 -16148.619422  21023.880015    223.467872                    
V 22  23870.668686 -11293.879053  -5213.529956      0.027501                    
P 23 -16897.226991   5553.749808 -19746.888243     -8.491478                    
V 23 -20283.369228 -14996.315434  12666.765205     -0.031921                    
P 24  14593.432236  -9499.958751  20010.881749    -25.879400                    
V 24   -105.484745  25516.933856  12270.438898     -0.006441                    
P 25  16320.635648 -17214.072392 -11873.627613     20.395649                    
V 25  14316.982199  -4922.435792  27089.927580      0.011949                    
P 26  22442.611486  12734.452835   6262.291656    122.574757                    
V 26   5442.851467   7167.487120 -30546.709833     -0.112462                    
P 27 -23390.944393 -11962.514941   4078.847498    -20.359790                    
V 27  -2852.993177  -5079.967284 -31197.685520      0.002598                    
P 28  -1504.295886  16154.728645  21606.268372    343.749480                    
V 28 -24142.380464   9642.346713  -9281.149351      0.028378                    
P 29   7475.467965 -13119.670087 -21808.875052    522.128092                    
V 29  22441.598605  16356.924389  -2096.754656      0.027757                    
P 30  -1283.519335  26299.293312   3405.358533      2.401530                    
V 30  -3424.341823   3896.468634 -31343.429346     -0.018648                    
P 31  -8656.747499 -19521.527789 -15434.531344    334.062223                    
V 31   3633.549491 -19717.337004  22979.310578      0.001203                    
P 32 -24527.883377   2702.863798   9120.866994   -458.616652                    
V 32   9631.040787  -7410.735550  28824.914064      0.074176                    
EOF
